OBJECT_NAME,OBJECT_ID,EPOCH,MEAN_MOTION,ECCENTRICITY,INCLINATION,RA_OF_ASC_NODE,ARG_OF_PERICENTER,MEAN_ANOMALY,EPHEMERIS_TYPE,CLASSIFICATION_TYPE,NORAD_CAT_ID,ELEMENT_SET_NO,REV_AT_EPOCH,BSTAR,MEAN_MOTION_DOT,MEAN_MOTION_DDOT
STARLINK-35006,2025-184M,2026-06-13T14:32:07.507680,15.05659282,.00012798,97.3639,216.3429,92.5293,267.6081,0,U,65284,999,4573,.14567019E-3,.2046E-4,0
STARLINK-34995,2025-184N,2026-06-13T14:52:03.557568,15.05660119,.00015576,97.3654,216.3234,100.8274,259.3129,0,U,65285,999,4573,.25618668E-3,.3642E-4,0
STARLINK-35048,2025-184P,2026-06-13T14:40:06.204288,15.05659347,.00018391,97.3651,216.3365,88.0827,272.0611,0,U,65286,999,4568,.16576807E-3,.2336E-4,0
STARLINK-35007,2025-184Q,2026-06-13T15:04:01.305696,15.05658298,.00017457,97.3650,216.3115,102.7081,257.4342,0,U,65287,999,4567,.13565714E-3,.1901E-4,0
STARLINK-35018,2025-184R,2026-06-13T14:20:10.094784,15.05657952,.00022746,97.3652,216.3562,112.5378,247.6090,0,U,65288,999,4573,.26665294E-3,.3793E-4,0
STARLINK-34845,2025-184S,2026-06-13T14:08:13.114752,15.05638633,.00020649,97.3642,216.3627,99.1256,261.0205,0,U,65289,999,4573,.96118386E-4,.1329E-4,0
STARLINK-34984,2025-184T,2026-06-13T14:28:08.464800,15.05659556,.00020337,97.3641,216.3459,98.4760,261.6698,0,U,65290,999,4573,.25197915E-3,.3581E-4,0
STARLINK-35002,2025-184U,2026-06-13T13:44:15.836928,15.05660719,.0000963,97.3656,216.2330,101.8232,258.3103,0,U,65291,999,4572,.29027105E-3,.4134E-4,0
STARLINK-35017,2025-184V,2026-06-13T14:00:13.872960,15.05668587,.00018451,97.3676,216.3725,88.5507,271.5932,0,U,65292,999,4568,-.61959248E-4,-.952E-5,0
STARLINK-34951,2025-184W,2026-06-13T14:44:05.224704,15.05656085,.00012854,97.3648,216.3332,112.8595,247.2768,0,U,65293,999,4573,.42202761E-3,.6038E-4,0
STARLINK-34613,2025-184X,2026-06-13T15:00:01.054080,15.05686957,.00015536,97.3641,216.3141,137.1938,222.9411,0,U,65294,999,4573,.11312642E-2,.16318E-3,0
STARLINK-34834,2025-184Y,2026-06-13T15:27:56.951424,15.05650288,.00016754,97.3621,216.2886,122.2180,237.9210,0,U,65295,999,4573,.24355749E-3,.3459E-4,0
STARLINK-34872,2025-184Z,2026-06-13T15:11:59.432928,15.05657975,.00006318,97.3651,216.3035,167.0243,193.1000,0,U,65296,999,4573,.28784753E-3,.4099E-4,0
STARLINK-34899,2025-189A,2026-06-13T04:09:02.652768,15.31716548,.00011774,53.1573,122.6536,88.1854,271.9282,0,U,65323,999,4573,.61973465E-3,.18925E-3,0
STARLINK-34196,2025-189B,2026-06-13T03:56:03.623712,15.31754320,.00012494,53.1579,122.6160,89.9428,270.1716,0,U,65324,999,4568,.74715132E-3,.2293E-3,0
STARLINK-34911,2025-189C,2026-06-13T13:44:46.488192,15.30203312,.00015117,53.1565,121.6142,107.0479,253.0687,0,U,65325,999,4578,.67837548E-3,.19788E-3,0
STARLINK-34902,2025-189D,2026-06-13T04:03:43.775424,15.30193558,.00015246,53.1578,123.3582,89.1722,270.9453,0,U,65326,999,4572,.77646175E-3,.22703E-3,0
STARLINK-34880,2025-189E,2026-06-13T04:06:45.519552,15.30234472,.00012733,53.1578,123.3738,94.0187,266.0959,0,U,65327,999,4572,.59400916E-3,.17293E-3,0
STARLINK-34885,2025-189F,2026-06-13T13:46:15.447360,15.31718590,.00014555,53.1573,120.9084,93.6518,266.4650,0,U,65328,999,4573,.89393165E-3,.27493E-3,0
STARLINK-34908,2025-189G,2026-06-13T14:46:54.935040,15.30212020,.00012202,53.1591,121.1658,88.2129,271.9012,0,U,65329,999,4579,.93602437E-3,.27476E-3,0
STARLINK-34864,2025-189H,2026-06-13T04:56:34.708992,15.31706770,.00015064,53.1609,122.8763,91.1767,268.9407,0,U,65330,999,4573,.34344382E-3,.10309E-3,0
STARLINK-34918,2025-189J,2026-06-13T04:02:19.616640,15.31715521,.00013144,53.1580,122.6380,86.5073,273.6079,0,U,65331,999,4567,.64051483E-3,.19573E-3,0
STARLINK-33890,2025-189K,2026-06-13T04:09:31.505184,15.31714784,.0001287,53.1573,122.6655,83.8615,276.2533,0,U,65332,999,4453,.58275002E-3,.1777E-3,0
STARLINK-34602,2025-189L,2026-06-13T13:46:44.008608,15.31714067,.00014353,53.1587,120.9062,101.0630,259.0532,0,U,65333,999,4579,.74832004E-3,.22938E-3,0
STARLINK-34878,2025-189M,2026-06-13T05:02:49.574400,15.30393120,.0001327,53.1598,122.9014,103.5284,256.5865,0,U,65334,999,4573,.53372E-2,.162169E-2,0
STARLINK-34874,2025-189N,2026-06-13T04:29:34.293408,15.30200602,.00013559,53.1573,123.4612,91.8233,268.2923,0,U,65335,999,4572,.55604616E-3,.16145E-3,0
STARLINK-34835,2025-189P,2026-06-13T13:58:28.922880,15.30175076,.00015113,53.1573,121.6686,107.3501,252.7665,0,U,65336,999,4578,.56242394E-3,.16322E-3,0
STARLINK-34854,2025-189Q,2026-06-13T14:13:37.388640,15.31710658,.0001251,53.1591,121.0251,94.3891,265.7253,0,U,65337,999,4573,.57552444E-3,.17542E-3,0
STARLINK-34751,2025-189R,2026-06-13T14:00:01.999872,15.31704715,.00012059,53.1570,120.9140,96.4688,288.8235,0,U,65338,999,588,-.45988674E-3,-.1461E-3,0
STARLINK-34777,2025-189S,2026-06-13T14:00:09.600480,15.31752127,.00013818,53.1579,120.9655,87.9124,272.2036,0,U,65339,999,4580,.10110775E-2,.31192E-3,0
