STARLINK-35006          
1 65284U 25184M   26164.60564245  .00002046  00000+0  14567-3 0  9993
2 65284  97.3639 216.3429 0001279  92.5293 267.6081 15.05659282 45732
STARLINK-34995          
1 65285U 25184N   26164.61948562  .00003642  00000+0  25619-3 0  9996
2 65285  97.3654 216.3234 0001557 100.8274 259.3129 15.05660119 45737
STARLINK-35048          
1 65286U 25184P   26164.61118292  .00002336  00000+0  16577-3 0  9998
2 65286  97.3651 216.3365 0001839  88.0827 272.0611 15.05659347 45687
STARLINK-35007          
1 65287U 25184Q   26164.62779289  .00001901  00000+0  13566-3 0  9991
2 65287  97.3650 216.3115 0001745 102.7081 257.4342 15.05658298 45673
STARLINK-35018          
1 65288U 25184R   26164.59733906  .00003793  00000+0  26665-3 0  9999
2 65288  97.3652 216.3562 0002274 112.5378 247.6090 15.05657952 45732
STARLINK-34845          
1 65289U 25184S   26164.58904068  .00001329  00000+0  96118-4 0  9992
2 65289  97.3642 216.3627 0002064  99.1256 261.0205 15.05638633 45739
STARLINK-34984          
1 65290U 25184T   26164.60287575  .00003581  00000+0  25198-3 0  9995
2 65290  97.3641 216.3459 0002033  98.4760 261.6698 15.05659556 45730
STARLINK-35002          
1 65291U 25184U   26164.57240552  .00004134  00000+0  29027-3 0  9996
2 65291  97.3656 216.2330 0000963 101.8232 258.3103 15.05660719 45723
STARLINK-35017          
1 65292U 25184V   26164.58349390 -.00000952  00000+0 -61959-4 0  9995
2 65292  97.3676 216.3725 0001845  88.5507 271.5932 15.05668587 45684
STARLINK-34951          
1 65293U 25184W   26164.61394936  .00006038  00000+0  42203-3 0  9995
2 65293  97.3648 216.3332 0001285 112.8595 247.2768 15.05656085 45737
STARLINK-34613          
1 65294U 25184X   26164.62501220  .00016318  00000+0  11313-2 0  9992
2 65294  97.3641 216.3141 0001553 137.1938 222.9411 15.05686957 45734
STARLINK-34834          
1 65295U 25184Y   26164.64440916  .00003459  00000+0  24356-3 0  9993
2 65295  97.3621 216.2886 0001675 122.2180 237.9210 15.05650288 45738
STARLINK-34872          
1 65296U 25184Z   26164.63332677  .00004099  00000+0  28785-3 0  9998
2 65296  97.3651 216.3035 0000631 167.0243 193.1000 15.05657975 45737
STARLINK-34899          
1 65323U 25189A   26164.17294737  .00018925  00000+0  61973-3 0  9996
2 65323  53.1573 122.6536 0001177  88.1854 271.9282 15.31716548 45731
STARLINK-34196          
1 65324U 25189B   26164.16393083  .00022930  00000+0  74715-3 0  9999
2 65324  53.1579 122.6160 0001249  89.9428 270.1716 15.31754320 45684
STARLINK-34911          
1 65325U 25189C   26164.57276028  .00019788  00000+0  67838-3 0  9999
2 65325  53.1565 121.6142 0001511 107.0479 253.0687 15.30203312 45786
STARLINK-34902          
1 65326U 25189D   26164.16925666  .00022703  00000+0  77646-3 0  9993
2 65326  53.1578 123.3582 0001524  89.1722 270.9453 15.30193558 45726
STARLINK-34880          
1 65327U 25189E   26164.17136018  .00017293  00000+0  59401-3 0  9997
2 65327  53.1578 123.3738 0001273  94.0187 266.0959 15.30234472 45729
STARLINK-34885          
1 65328U 25189F   26164.57378990  .00027493  00000+0  89393-3 0  9995
2 65328  53.1573 120.9084 0001455  93.6518 266.4650 15.31718590 45739
STARLINK-34908          
1 65329U 25189G   26164.61591360  .00027476  00000+0  93602-3 0  9998
2 65329  53.1591 121.1658 0001220  88.2129 271.9012 15.30212020 45793
STARLINK-34864          
1 65330U 25189H   26164.20595728  .00010309  00000+0  34344-3 0  9992
2 65330  53.1609 122.8763 0001506  91.1767 268.9407 15.31706770 45737
STARLINK-34918          
1 65331U 25189J   26164.16828260  .00019573  00000+0  64051-3 0  9998
2 65331  53.1580 122.6380 0001314  86.5073 273.6079 15.31715521 45679
STARLINK-33890          
1 65332U 25189K   26164.17328131  .00017770  00000+0  58275-3 0  9990
2 65332  53.1573 122.6655 0001287  83.8615 276.2533 15.31714784 44536
STARLINK-34602          
1 65333U 25189L   26164.57412047  .00022938  00000+0  74832-3 0  9994
2 65333  53.1587 120.9062 0001435 101.0630 259.0532 15.31714067 45791
STARLINK-34878          
1 65334U 25189M   26164.21029600  .00162169  00000+0  53372-2 0  9991
2 65334  53.1598 122.9014 0001327 103.5284 256.5865 15.30393120 45732
STARLINK-34874          
1 65335U 25189N   26164.18720247  .00016145  00000+0  55605-3 0  9997
2 65335  53.1573 123.4612 0001355  91.8233 268.2923 15.30200602 45726
STARLINK-34835          
1 65336U 25189P   26164.58227920  .00016322  00000+0  56242-3 0  9997
2 65336  53.1573 121.6686 0001511 107.3501 252.7665 15.30175076 45786
STARLINK-34854          
1 65337U 25189Q   26164.59279385  .00017542  00000+0  57552-3 0  9991
2 65337  53.1591 121.0251 0001251  94.3891 265.7253 15.31710658 45731
STARLINK-34751          
1 65338U 25189R   26164.58335648 -.00014610  00000+0 -45989-3 0  9992
2 65338  53.1570 120.9140 0001205  96.4688 288.8235 15.31704715  5885
STARLINK-34777          
1 65339U 25189S   26164.58344445  .00031192  00000+0  10111-2 0  9998
2 65339  53.1579 120.9655 0001381  87.9124 272.2036 15.31752127 45803
